[{"OBJECT_NAME":"OBJECT B","OBJECT_ID":"2024-092B","EPOCH":"2026-03-09T22:35:16.756224","MEAN_MOTION":15.26654665,"ECCENTRICITY":0.00097063,"INCLINATION":97.6334,"RA_OF_ASC_NODE":195.5822,"ARG_OF_PERICENTER":166.5945,"MEAN_ANOMALY":193.5553,"EPHEMERIS_TYPE":0,"CLASSIFICATION_TYPE":"U","NORAD_CAT_ID":59774,"ELEMENT_SET_NO":999,"REV_AT_EPOCH":10038,"BSTAR":0.00052893964,"MEAN_MOTION_DOT":0.00013825,"MEAN_MOTION_DDOT":0},{"OBJECT_NAME":"STARLINK-35306","OBJECT_ID":"2026-003AD","EPOCH":"2026-03-09T11:40:24.934080","MEAN_MOTION":15.2760162,"ECCENTRICITY":4.133e-5,"INCLINATION":42.9965,"RA_OF_ASC_NODE":228.1323,"ARG_OF_PERICENTER":331.1581,"MEAN_ANOMALY":28.9248,"EPHEMERIS_TYPE":0,"CLASSIFICATION_TYPE":"U","NORAD_CAT_ID":67361,"ELEMENT_SET_NO":999,"REV_AT_EPOCH":879,"BSTAR":0.0012615773,"MEAN_MOTION_DOT":0.0003464,"MEAN_MOTION_DDOT":0}]
